NORAD_CAT_ID,OBJECT_NAME,OBJECT_TYPE,EPOCH,MEAN_MOTION,ECCENTRICITY,INCLINATION,RA_OF_ASC_NODE,ARG_OF_PERICENTER,MEAN_ANOMALY,BSTAR,MEAN_MOTION_DOT,MEAN_MOTION_DDOT,TLE_LINE0,TLE_LINE1,TLE_LINE2,SEMIMAJOR_AXIS,PERIOD,APOGEE,PERIGEE,DECAYED
55283.0,STARLINK-5317,PAYLOAD,2024-02-07 14:29:09,14.98327804,0.0002819,70.0009,163.383,268.5091,91.5745,2.7479e-05,2.35e-06,0.0,0 STARLINK-5317,1 55283U 23010Q   24038.60358737  .00000235  00000-0  27479-4 0  9998,2 55283  70.0009 163.3830 0002819 268.5091  91.5745 14.98327804 58770,6950.2,96.107,574.024,570.105,0.0
55283.0,STARLINK-5317,PAYLOAD,2024-02-07 17:41:26,14.98326744,0.0002836,70.001,163.0466,267.7693,92.3141,2.5688e-05,2.14e-06,0.0,0 STARLINK-5317,1 55283U 23010Q   24038.73710826  .00000214  00000-0  25688-4 0  9990,2 55283  70.0010 163.0466 0002836 267.7693  92.3141 14.98326744 58795,6950.203,96.107,574.039,570.097,0.0
55283.0,STARLINK-5317,PAYLOAD,2024-02-08 11:18:54,14.98329424,0.0002829,70.0007,161.1944,269.6033,90.4801,7.8686e-05,8.46e-06,0.0,0 STARLINK-5317,1 55283U 23010Q   24039.47146501  .00000846  00000-0  78686-4 0  9992,2 55283  70.0007 161.1944 0002829 269.6033  90.4801 14.98329424 58602,6950.195,96.107,574.026,570.093,0.0
55283.0,STARLINK-5317,PAYLOAD,2024-02-08 14:31:10,14.98334701,0.0002902,70.0007,160.8579,268.4734,91.6093,-1.7661e-05,-3.04e-06,0.0,0 STARLINK-5317,1 55283U 23010Q   24039.60498342 -.00000304  00000-0 -17661-4 0  9997,2 55283  70.0007 160.8579 0002902 268.4734  91.6093 14.98334701 58924,6950.178,96.107,574.06,570.026,0.0
55283.0,STARLINK-5317,PAYLOAD,2024-02-08 17:43:26,14.98338253,0.0002854,70.0009,160.5215,268.2071,91.8761,2.6407e-05,2.22e-06,0.0,0 STARLINK-5317,1 55283U 23010Q   24039.73849944  .00000222  00000-0  26407-4 0  9994,2 55283  70.0009 160.5215 0002854 268.2071  91.8761 14.98338253 58647,6950.167,96.106,574.016,570.049,0.0
55283.0,STARLINK-5317,PAYLOAD,2024-02-09 11:20:55,14.98325794,0.00029,70.0009,158.6704,269.0503,91.0324,4.1331e-05,4e-06,0.0,0 STARLINK-5317,1 55283U 23010Q   24040.47286597  .00000400  00000-0  41331-4 0  9997,2 55283  70.0009 158.6704 0002900 269.0503  91.0324 14.98325794 58754,6950.206,96.107,574.086,570.055,0.0
55283.0,STARLINK-5317,PAYLOAD,2024-02-09 14:33:11,14.98325223,0.0002901,70.001,158.3338,267.759,92.3237,3.301e-05,3.01e-06,0.0,0 STARLINK-5317,1 55283U 23010Q   24040.60638690  .00000301  00000-0  33010-4 0  9992,2 55283  70.0010 158.3338 0002901 267.7590  92.3237 14.98325223 59078,6950.208,96.107,574.089,570.056,0.0
55283.0,STARLINK-5317,PAYLOAD,2024-02-10 11:22:56,14.98326337,0.0002775,70.0013,156.1459,264.94,95.1442,-1.9911e-05,-3.3e-06,0.0,0 STARLINK-5317,1 55283U 23010Q   24041.47426895 -.00000330  00000-0 -19911-4 0  9998,2 55283  70.0013 156.1459 0002775 264.9400  95.1442 14.98326337 58906,6950.204,96.107,573.998,570.141,0.0
55283.0,STARLINK-5317,PAYLOAD,2024-02-10 12:59:04,14.98326977,0.0002936,70.001,155.9775,266.5877,93.4946,-5.2956e-05,-7.25e-06,0.0,0 STARLINK-5317,1 55283U 23010Q   24041.54102968 -.00000725  00000-0 -52956-4 0  9992,2 55283  70.0010 155.9775 0002936 266.5877  93.4946 14.98326977 59211,6950.202,96.107,574.108,570.027,0.0
55283.0,STARLINK-5317,PAYLOAD,2024-02-10 17:47:28,14.98331585,0.0002808,70.0012,155.4723,262.4405,97.6435,8.2847e-06,6e-08,0.0,0 STARLINK-5317,1 55283U 23010Q   24041.74130481  .00000006  00000-0  82847-5 0  9998,2 55283  70.0012 155.4723 0002808 262.4405  97.6435 14.98331585 59244,6950.188,96.107,574.005,570.101,0.0
55283.0,STARLINK-5317,PAYLOAD,2024-02-11 11:24:56,14.98390567,0.0002811,70.0013,153.6209,273.4521,86.6317,-0.00098705,-0.00011869,0.0,0 STARLINK-5317,1 55283U 23010Q   24042.47565732 -.00011869  00000-0 -98705-3 0  9999,2 55283  70.0013 153.6209 0002811 273.4521  86.6317 14.98390567 59050,6950.006,96.103,573.824,569.917,0.0
55283.0,STARLINK-5317,PAYLOAD,2024-02-11 14:37:13,14.98353017,0.0002249,70.0014,153.2842,267.537,92.5532,-0.00031108,-3.805e-05,0.0,0 STARLINK-5317,1 55283U 23010Q   24042.60918018 -.00003805  00000-0 -31108-3 0  9998,2 55283  70.0014 153.2842 0002249 267.5370  92.5532 14.98353017 59370,6950.122,96.106,573.55,570.424,0.0
55283.0,STARLINK-5317,PAYLOAD,2024-02-11 17:49:28,14.98371587,0.0002184,70.0014,152.9477,258.3314,101.76,-0.00054218,-6.563e-05,0.0,0 STARLINK-5317,1 55283U 23010Q   24042.74269103 -.00006563  00000-0 -54218-3 0  9998,2 55283  70.0014 152.9477 0002184 258.3314 101.7600 14.98371587 59397,6950.064,96.104,573.447,570.411,0.0
55283.0,STARLINK-5317,PAYLOAD,2024-02-12 11:26:58,14.98330316,0.000274,70.0014,151.0969,257.3252,102.7601,0.00013087,1.469e-05,0.0,0 STARLINK-5317,1 55283U 23010Q   24043.47706068  .00001469  00000-0  13087-3 0  9992,2 55283  70.0014 151.0969 0002740 257.3252 102.7601 14.98330316 59208,6950.192,96.107,573.961,570.153,0.0
55283.0,STARLINK-5317,PAYLOAD,2024-02-12 14:39:13,14.98333954,0.0002754,70.0015,150.7602,255.6902,104.3952,0.00012447,1.393e-05,0.0,0 STARLINK-5317,1 55283U 23010Q   24043.61057836  .00001393  00000-0  12447-3 0  9995,2 55283  70.0015 150.7602 0002754 255.6902 104.3952 14.98333954 59520,6950.181,96.107,573.96,570.132,0.0
55283.0,STARLINK-5317,PAYLOAD,2024-02-12 16:15:21,14.98335047,0.0002698,70.0016,150.5919,251.2868,108.7999,0.00013565,1.526e-05,0.0,0 STARLINK-5317,1 55283U 23010Q   24043.67733711  .00001526  00000-0  13565-3 0  9994,2 55283  70.0016 150.5919 0002698 251.2868 108.7999 14.98335047 59535,6950.177,96.107,573.917,570.167,0.0
55283.0,STARLINK-5317,PAYLOAD,2024-02-13 11:28:59,14.98324233,0.0002589,70.0018,148.5719,250.2937,109.7943,-8.5647e-05,-1.114e-05,0.0,0 STARLINK-5317,1 55283U 23010Q   24044.47846924 -.00001114  00000-0 -85647-4 0  9990,2 55283  70.0018 148.5719 0002589 250.2937 109.7943 14.98324233 59352,6950.211,96.107,573.875,570.276,0.0
55283.0,STARLINK-5317,PAYLOAD,2024-02-13 14:41:15,14.98327497,0.0003086,70.0005,148.2342,265.1603,94.9204,-6.5671e-05,-8.76e-06,0.0,0 STARLINK-5317,1 55283U 23010Q   24044.61198759 -.00000876  00000-0 -65671-4 0  9991,2 55283  70.0005 148.2342 0003086 265.1603  94.9204 14.98327497 59670,6950.201,96.107,574.21,569.921,0.0
55283.0,STARLINK-5317,PAYLOAD,2024-02-13 16:17:23,14.98328676,0.000306,70.0007,148.0659,265.1532,94.9277,-4.7797e-05,-6.63e-06,0.0,0 STARLINK-5317,1 55283U 23010Q   24044.67874654 -.00000663  00000-0 -47797-4 0  9995,2 55283  70.0007 148.0659 0003060 265.1532  94.9277 14.98328676 59685,6950.197,96.107,574.189,569.935,0.0
55283.0,STARLINK-5317,PAYLOAD,2024-02-14 00:18:03,14.98335514,0.0003412,69.9999,147.2228,266.2171,93.8598,-0.00010533,-1.35e-05,0.0,0 STARLINK-5317,1 55283U 23010Q   24045.01254219 -.00001350  00000-0 -10533-3 0  9994,2 55283  69.9999 147.2228 0003412 266.2171  93.8598 14.98335514 59433,6950.176,96.107,574.412,569.669,0.0
55283.0,STARLINK-5317,PAYLOAD,2024-02-14 14:43:15,14.98337371,0.0003009,70.0002,145.7099,264.8507,95.2308,8.0785e-05,8.71e-06,0.0,0 STARLINK-5317,1 55283U 23010Q   24045.61337766  .00000871  00000-0  80785-4 0  9991,2 55283  70.0002 145.7099 0003009 264.8507  95.2308 14.98337371 59820,6950.17,96.107,574.126,569.944,0.0
55283.0,STARLINK-5317,PAYLOAD,2024-02-14 16:19:23,14.98338874,0.0002997,70.0006,145.5429,266.8111,93.2705,0.00010129,1.116e-05,0.0,0 STARLINK-5317,1 55283U 23010Q   24045.68013630  .00001116  00000-0  10129-3 0  9996,2 55283  70.0006 145.5429 0002997 266.8111  93.2705 14.98338874 59836,6950.165,96.106,574.113,569.947,0.0
55283.0,STARLINK-5317,PAYLOAD,2024-02-15 11:33:01,14.98320679,0.0002907,70.0004,143.5205,263.5655,96.5173,8.4288e-05,9.13e-06,0.0,0 STARLINK-5317,1 55283U 23010Q   24046.48126826  .00000913  00000-0  84288-4 0  9999,2 55283  70.0004 143.5205 0002907 263.5655  96.5173 14.98320679 59651,6950.222,96.108,574.107,570.066,0.0
55283.0,STARLINK-5317,PAYLOAD,2024-02-15 14:45:17,14.983237,0.0002989,70.0005,143.184,265.4943,94.5875,8.0629e-05,8.69e-06,0.0,0 STARLINK-5317,1 55283U 23010Q   24046.61478711  .00000869  00000-0  80629-4 0  9992,2 55283  70.0005 143.1840 0002989 265.4943  94.5875 14.98323700 59974,6950.212,96.107,574.155,570.0,0.0
55283.0,STARLINK-5317,PAYLOAD,2024-02-15 16:21:25,14.98325065,0.000297,70.0005,143.0158,265.0525,95.0295,9.6812e-05,1.062e-05,0.0,0 STARLINK-5317,1 55283U 23010Q   24046.68154605  .00001062  00000-0  96812-4 0  9999,2 55283  70.0005 143.0158 0002970 265.0525  95.0295 14.98325065 59986,6950.208,96.107,574.137,570.009,0.0
55283.0,STARLINK-5317,PAYLOAD,2024-02-16 05:10:29,14.98328675,0.0003107,70.0007,141.6706,271.9276,88.1527,8.1353e-05,8.78e-06,0.0,0 STARLINK-5317,1 55283U 23010Q   24047.21562455  .00000878  00000-0  81353-4 0  9993,2 55283  70.0007 141.6706 0003107 271.9276  88.1527 14.98328675 59760,6950.197,96.107,574.221,569.903,0.0
55283.0,STARLINK-5317,PAYLOAD,2024-02-16 14:47:17,14.98338725,0.0003044,70.0003,140.6603,272.3199,87.7611,5.9725e-05,6.2e-06,0.0,0 STARLINK-5317,1 55283U 23010Q   24047.61617815  .00000620  00000-0  59725-4 0  9991,2 55283  70.0003 140.6603 0003044 272.3199  87.7611 14.98338725 60128,6950.166,96.106,574.147,569.915,0.0
55283.0,STARLINK-5317,PAYLOAD,2024-02-16 16:23:25,14.98340328,0.0003032,70.0004,140.4919,272.3096,87.7716,7.8016e-05,8.38e-06,0.0,0 STARLINK-5317,1 55283U 23010Q   24047.68293639  .00000838  00000-0  78016-4 0  9997,2 55283  70.0004 140.4919 0003032 272.3096  87.7716 14.98340328 59834,6950.161,96.106,574.133,569.919,0.0
55283.0,STARLINK-5317,PAYLOAD,2024-02-17 10:00:55,14.98321346,0.0002699,70.0018,138.6425,269.0941,90.9908,7.3843e-05,7.88e-06,0.0,0 STARLINK-5317,1 55283U 23010Q   24048.41730872  .00000788  00000-0  73843-4 0  9991,2 55283  70.0018 138.6425 0002699 269.0941  90.9908 14.98321346 59940,6950.22,96.108,573.961,570.209,0.0
55283.0,STARLINK-5317,PAYLOAD,2024-02-17 14:49:19,14.98320113,0.000249,70.0016,138.1375,265.5304,94.5571,9.5628e-05,1.048e-05,0.0,0 STARLINK-5317,1 55283U 23010Q   24048.61758991  .00001048  00000-0  95628-4 0  9990,2 55283  70.0016 138.1375 0002490 265.5304  94.5571 14.98320113 60275,6950.223,96.108,573.819,570.358,0.0
